{
  "type": "FeatureCollection",
  "features": [
    {
      "type": "Feature",
      "properties": {
        "norad_id": 34079,
        "name": "IRIDIUM 33 DEB",
        "group": "iridium-33-debris",
        "lat": 26.752344897678167,
        "lon": -178.43699435545992,
        "alt_km": 619.3493533512064,
        "timestamp": "2025-12-24T07:45:06.583687+00:00",
        "meta_object_name": "IRIDIUM 33 DEB",
        "meta_object_id": "1997-051CN",
        "meta_epoch": "2025-12-23T18:55:00.035904",
        "meta_mean_motion": 14.8380507,
        "meta_eccentricity": 0.00042473,
        "meta_inclination": 86.3777,
        "meta_ra_of_asc_node": 3.6362,
        "meta_arg_of_pericenter": 327.1417,
        "meta_mean_anomaly": 211.0944,
        "meta_ephemeris_type": 0,
        "meta_classification_type": "U",
        "meta_norad_cat_id": 34079,
        "meta_element_set_no": 999,
        "meta_rev_at_epoch": 89141,
        "meta_bstar": 0.0018223164,
        "meta_mean_motion_dot": 0.00015139,
        "meta_mean_motion_ddot": 0,
        "tle_line1": "1 34079U 97051CN  25357.78819486  .00015139  00000+0  18223-2 0  9994",
        "tle_line2": "2 34079  86.3777   3.6362 0004247 327.1417 211.0944 14.83805070891415"
      },
      "geometry": {
        "type": "Point",
        "coordinates": [
          -178.43699435545992,
          26.752344897678167
        ]
      }
    },
    {
      "type": "Feature",
      "properties": {
        "norad_id": 34088,
        "name": "IRIDIUM 33 DEB",
        "group": "iridium-33-debris",
        "lat": -36.154216049274375,
        "lon": -151.95224046631418,
        "alt_km": 597.396445273489,
        "timestamp": "2025-12-24T07:45:06.583700+00:00",
        "meta_object_name": "IRIDIUM 33 DEB",
        "meta_object_id": "1997-051CX",
        "meta_epoch": "2025-12-23T01:54:32.264640",
        "meta_mean_motion": 14.9182131,
        "meta_eccentricity": 0.0006827,
        "meta_inclination": 86.3834,
        "meta_ra_of_asc_node": 25.9708,
        "meta_arg_of_pericenter": 144.041,
        "meta_mean_anomaly": 238.2905,
        "meta_ephemeris_type": 0,
        "meta_classification_type": "U",
        "meta_norad_cat_id": 34088,
        "meta_element_set_no": 999,
        "meta_rev_at_epoch": 88896,
        "meta_bstar": 0.0024729077,
        "meta_mean_motion_dot": 0.00025042,
        "meta_mean_motion_ddot": 0,
        "tle_line1": "1 34088U 97051CX  25357.07954010  .00025042  00000+0  24729-2 0  9991",
        "tle_line2": "2 34088  86.3834  25.9708 0006827 144.0410 238.2905 14.91821310888963"
      },
      "geometry": {
        "type": "Point",
        "coordinates": [
          -151.95224046631418,
          -36.154216049274375
        ]
      }
    },
    {
      "type": "Feature",
      "properties": {
        "norad_id": 34091,
        "name": "IRIDIUM 33 DEB",
        "group": "iridium-33-debris",
        "lat": 10.36681556234964,
        "lon": 62.196416926632445,
        "alt_km": 634.1559047144601,
        "timestamp": "2025-12-24T07:45:06.583712+00:00",
        "meta_object_name": "IRIDIUM 33 DEB",
        "meta_object_id": "1997-051DA",
        "meta_epoch": "2025-12-23T21:59:09.722400",
        "meta_mean_motion": 14.82607708,
        "meta_eccentricity": 0.00341817,
        "meta_inclination": 86.3412,
        "meta_ra_of_asc_node": 61.7123,
        "meta_arg_of_pericenter": 253.0965,
        "meta_mean_anomaly": 106.6509,
        "meta_ephemeris_type": 0,
        "meta_classification_type": "U",
        "meta_norad_cat_id": 34091,
        "meta_element_set_no": 999,
        "meta_rev_at_epoch": 88032,
        "meta_bstar": 0.0046837372,
        "meta_mean_motion_dot": 0.00038267,
        "meta_mean_motion_ddot": 0,
        "tle_line1": "1 34091U 97051DA  25357.91608475  .00038267  00000+0  46837-2 0  9996",
        "tle_line2": "2 34091  86.3412  61.7123 0034181 253.0965 106.6509 14.82607708880321"
      },
      "geometry": {
        "type": "Point",
        "coordinates": [
          62.196416926632445,
          10.36681556234964
        ]
      }
    },
    {
      "type": "Feature",
      "properties": {
        "norad_id": 34097,
        "name": "IRIDIUM 33 DEB",
        "group": "iridium-33-debris",
        "lat": 83.75405444440135,
        "lon": 33.68389680729184,
        "alt_km": 797.5780319849528,
        "timestamp": "2025-12-24T07:45:06.583722+00:00",
        "meta_object_name": "IRIDIUM 33 DEB",
        "meta_object_id": "1997-051DG",
        "meta_epoch": "2025-12-23T22:59:23.367840",
        "meta_mean_motion": 14.34863639,
        "meta_eccentricity": 0.00814826,
        "meta_inclination": 86.2002,
        "meta_ra_of_asc_node": 356.4553,
        "meta_arg_of_pericenter": 325.4463,
        "meta_mean_anomaly": 34.1451,
        "meta_ephemeris_type": 0,
        "meta_classification_type": "U",
        "meta_norad_cat_id": 34097,
        "meta_element_set_no": 999,
        "meta_rev_at_epoch": 87280,
        "meta_bstar": 0.0015469584,
        "meta_mean_motion_dot": 4.578e-05,
        "meta_mean_motion_ddot": 0,
        "tle_line1": "1 34097U 97051DG  25357.95790935  .00004578  00000+0  15470-2 0  9996",
        "tle_line2": "2 34097  86.2002 356.4553 0081482 325.4463  34.1451 14.34863639872804"
      },
      "geometry": {
        "type": "Point",
        "coordinates": [
          33.68389680729184,
          83.75405444440135
        ]
      }
    },
    {
      "type": "Feature",
      "properties": {
        "norad_id": 34145,
        "name": "IRIDIUM 33 DEB",
        "group": "iridium-33-debris",
        "lat": -54.418366037206184,
        "lon": -37.94508875068788,
        "alt_km": 772.0760440637023,
        "timestamp": "2025-12-24T07:45:06.583733+00:00",
        "meta_object_name": "IRIDIUM 33 DEB",
        "meta_object_id": "1997-051DY",
        "meta_epoch": "2025-12-23T05:21:52.043328",
        "meta_mean_motion": 14.4235986,
        "meta_eccentricity": 0.00556029,
        "meta_inclination": 86.2126,
        "meta_ra_of_asc_node": 327.8569,
        "meta_arg_of_pericenter": 60.5255,
        "meta_mean_anomaly": 300.1476,
        "meta_ephemeris_type": 0,
        "meta_classification_type": "U",
        "meta_norad_cat_id": 34145,
        "meta_element_set_no": 999,
        "meta_rev_at_epoch": 87789,
        "meta_bstar": 0.0011656692,
        "meta_mean_motion_dot": 3.943e-05,
        "meta_mean_motion_ddot": 0,
        "tle_line1": "1 34145U 97051DY  25357.22351902  .00003943  00000+0  11657-2 0  9995",
        "tle_line2": "2 34145  86.2126 327.8569 0055602  60.5255 300.1476 14.42359860877897"
      },
      "geometry": {
        "type": "Point",
        "coordinates": [
          -37.94508875068788,
          -54.418366037206184
        ]
      }
    },
    {
      "type": "Feature",
      "properties": {
        "norad_id": 34146,
        "name": "IRIDIUM 33 DEB",
        "group": "iridium-33-debris",
        "lat": -45.23531044474866,
        "lon": 168.4401246286519,
        "alt_km": 721.5938418873984,
        "timestamp": "2025-12-24T07:45:06.583743+00:00",
        "meta_object_name": "IRIDIUM 33 DEB",
        "meta_object_id": "1997-051DZ",
        "meta_epoch": "2025-12-23T05:55:17.173920",
        "meta_mean_motion": 14.49112641,
        "meta_eccentricity": 0.00266651,
        "meta_inclination": 86.2838,
        "meta_ra_of_asc_node": 345.1581,
        "meta_arg_of_pericenter": 185.2875,
        "meta_mean_anomaly": 188.6764,
        "meta_ephemeris_type": 0,
        "meta_classification_type": "U",
        "meta_norad_cat_id": 34146,
        "meta_element_set_no": 999,
        "meta_rev_at_epoch": 88259,
        "meta_bstar": 0.00083812732,
        "meta_mean_motion_dot": 3.219e-05,
        "meta_mean_motion_ddot": 0,
        "tle_line1": "1 34146U 97051DZ  25357.24672655  .00003219  00000+0  83813-3 0  9999",
        "tle_line2": "2 34146  86.2838 345.1581 0026665 185.2875 188.6764 14.49112641882598"
      },
      "geometry": {
        "type": "Point",
        "coordinates": [
          168.4401246286519,
          -45.23531044474866
        ]
      }
    },
    {
      "type": "Feature",
      "properties": {
        "norad_id": 34159,
        "name": "IRIDIUM 33 DEB",
        "group": "iridium-33-debris",
        "lat": -39.29148840590225,
        "lon": -133.70390546008292,
        "alt_km": 753.4029088922907,
        "timestamp": "2025-12-24T07:45:06.583753+00:00",
        "meta_object_name": "IRIDIUM 33 DEB",
        "meta_object_id": "1997-051EN",
        "meta_epoch": "2025-12-23T20:43:00.833376",
        "meta_mean_motion": 14.38519859,
        "meta_eccentricity": 0.0026138,
        "meta_inclination": 86.3491,
        "meta_ra_of_asc_node": 43.4975,
        "meta_arg_of_pericenter": 248.4541,
        "meta_mean_anomaly": 111.3871,
        "meta_ephemeris_type": 0,
        "meta_classification_type": "U",
        "meta_norad_cat_id": 34159,
        "meta_element_set_no": 999,
        "meta_rev_at_epoch": 88119,
        "meta_bstar": 0.00037587237,
        "meta_mean_motion_dot": 1.172e-05,
        "meta_mean_motion_ddot": 0,
        "tle_line1": "1 34159U 97051EN  25357.86320409  .00001172  00000+0  37587-3 0  9991",
        "tle_line2": "2 34159  86.3491  43.4975 0026138 248.4541 111.3871 14.38519859881197"
      },
      "geometry": {
        "type": "Point",
        "coordinates": [
          -133.70390546008292,
          -39.29148840590225
        ]
      }
    }
  ]
}